[{"OBJECT_NAME":"STARLINK-3130","OBJECT_ID":"2021-104AF","EPOCH":"2026-03-09T16:41:19.843584","MEAN_MOTION":15.08837154,"ECCENTRICITY":0.00011751,"INCLINATION":53.2178,"RA_OF_ASC_NODE":209.0975,"ARG_OF_PERICENTER":88.965,"MEAN_ANOMALY":271.1476,"EPHEMERIS_TYPE":0,"CLASSIFICATION_TYPE":"U","NORAD_CAT_ID":49437,"ELEMENT_SET_NO":999,"REV_AT_EPOCH":23891,"BSTAR":2.2888138e-5,"MEAN_MOTION_DOT":7.6e-7,"MEAN_MOTION_DDOT":0},{"OBJECT_NAME":"FENGYUN 1C DEB","OBJECT_ID":"1999-025CDM","EPOCH":"2026-03-09T06:24:55.905408","MEAN_MOTION":15.0430028,"ECCENTRICITY":0.00202824,"INCLINATION":99.0326,"RA_OF_ASC_NODE":346.4521,"ARG_OF_PERICENTER":26.5298,"MEAN_ANOMALY":133.8427,"EPHEMERIS_TYPE":0,"CLASSIFICATION_TYPE":"U","NORAD_CAT_ID":31714,"ELEMENT_SET_NO":999,"REV_AT_EPOCH":97342,"BSTAR":0.0098433176,"MEAN_MOTION_DOT":0.00140271,"MEAN_MOTION_DDOT":0}]
